[
    {
        "Altitude(m)": 604983.0528351287,
        "Argument of Periapsis(deg)": 0.0,
        "Eccentricity": 0.0,
        "Inclination(deg)": 60.0,
        "Latitude(deg)": -0.09253591244754354,
        "Longitude(deg)": 110.08391634183002,
        "Mean Anomaly(deg)": 180.0,
        "RAAN(deg)": 30.0,
        "Satellite Name": "Test1 143",
        "Satellite Number": 143,
        "Semi-Major Axis(m)": 6980739.136638005,
        "Time(s)": 0
    },
    {
        "Altitude(m)": 605055.331514308,
        "Argument of Periapsis(deg)": 0.00010418945913296404,
        "Eccentricity": 0.0,
        "Inclination(deg)": 60.0,
        "Latitude(deg)": -0.6329459613082387,
        "Longitude(deg)": 110.35204090238886,
        "Mean Anomaly(deg)": 180.62010614546185,
        "RAAN(deg)": 29.99957995086026,
        "Satellite Name": "Test1 143",
        "Satellite Number": 143,
        "Semi-Major Axis(m)": 6980739.136638005,
        "Time(s)": 10
    }
]